{"type": "FeatureCollection", "features": [ {"type": "Feature", "properties": {"norad_id": 34303, "name": "COSMOS 2251 DEB", "group": "cosmos-2251-debris", "lat": -73.64454477513428, "lon": -158.5315961006429, "alt_km": 794.0145089115049, "timestamp": "2025-12-17T09:00:17.541798+00:00", "meta": {"OBJECT_NAME": "COSMOS 2251 DEB", "OBJECT_ID": "1993-036MZ", "EPOCH": "2025-12-16T20:26:52.792224", "MEAN_MOTION": 14.54507642, "ECCENTRICITY": 0.01352222, "INCLINATION": 74.0056, "RA_OF_ASC_NODE": 280.2456, "ARG_OF_PERICENTER": 57.5595, "MEAN_ANOMALY": 358.3059, "EPHEMERIS_TYPE": 0, "CLASSIFICATION_TYPE": "U", "NORAD_CAT_ID": 34303, "ELEMENT_SET_NO": 999, "REV_AT_EPOCH": 88022, "BSTAR": 0.0011245143, "MEAN_MOTION_DOT": 5.389e-05, "MEAN_MOTION_DDOT": 0}, "tle": {"line1": "1 34303U 93036MZ  25350.85199991  .00005389  00000+0  11245-2 0  9999", "line2": "2 34303  74.0056 280.2456 0135222  57.5595 358.3059 14.54507642880226"}}, "geometry": {"type": "Point", "coordinates": [-158.5315961006429, -73.64454477513428]}}, {"type": "Feature", "properties": {"norad_id": 34304, "name": "COSMOS 2251 DEB", "group": "cosmos-2251-debris", "lat": 65.97354872072056, "lon": -105.97976282888726, "alt_km": 831.532325712973, "timestamp": "2025-12-17T09:00:17.541808+00:00", "meta": {"OBJECT_NAME": "COSMOS 2251 DEB", "OBJECT_ID": "1993-036NA", "EPOCH": "2025-12-16T11:05:18.546144", "MEAN_MOTION": 14.37896291, "ECCENTRICITY": 0.0128977, "INCLINATION": 74.0128, "RA_OF_ASC_NODE": 115.7286, "ARG_OF_PERICENTER": 252.7643, "MEAN_ANOMALY": 171.1386, "EPHEMERIS_TYPE": 0, "CLASSIFICATION_TYPE": "U", "NORAD_CAT_ID": 34304, "ELEMENT_SET_NO": 999, "REV_AT_EPOCH": 87350, "BSTAR": 0.0011600169, "MEAN_MOTION_DOT": 3.828e-05, "MEAN_MOTION_DDOT": 0}, "tle": {"line1": "1 34304U 93036NA  25350.46202021  .00003828  00000+0  11600-2 0  9997", "line2": "2 34304  74.0128 115.7286 0128977 252.7643 171.1386 14.37896291873501"}}, "geometry": {"type": "Point", "coordinates": [-105.97976282888726, 65.97354872072056]}}, {"type": "Feature", "properties": {"norad_id": 34307, "name": "COSMOS 2251 DEB", "group": "cosmos-2251-debris", "lat": -2.227643386056301, "lon": -54.96007567276866, "alt_km": 1269.8002601957169, "timestamp": "2025-12-17T09:00:17.541818+00:00", "meta": {"OBJECT_NAME": "COSMOS 2251 DEB", "OBJECT_ID": "1993-036ND", "EPOCH": "2025-12-16T22:40:16.908096", "MEAN_MOTION": 13.54326768, "ECCENTRICITY": 0.03919364, "INCLINATION": 74.0535, "RA_OF_ASC_NODE": 306.3678, "ARG_OF_PERICENTER": 136.384, "MEAN_ANOMALY": 286.0338, "EPHEMERIS_TYPE": 0, "CLASSIFICATION_TYPE": "U", "NORAD_CAT_ID": 34307, "ELEMENT_SET_NO": 999, "REV_AT_EPOCH": 82919, "BSTAR": 0.00057596393, "MEAN_MOTION_DOT": 6.22e-06, "MEAN_MOTION_DDOT": 0}, "tle": {"line1": "1 34307U 93036ND  25350.94464014  .00000622  00000+0  57596-3 0  9999", "line2": "2 34307  74.0535 306.3678 0391936 136.3840 286.0338 13.54326768829196"}}, "geometry": {"type": "Point", "coordinates": [-54.96007567276866, -2.227643386056301]}}, {"type": "Feature", "properties": {"norad_id": 34313, "name": "COSMOS 2251 DEB", "group": "cosmos-2251-debris", "lat": 21.5287732167254, "lon": -57.74321600739988, "alt_km": 500.7094117084762, "timestamp": "2025-12-17T09:00:17.541829+00:00", "meta": {"OBJECT_NAME": "COSMOS 2251 DEB", "OBJECT_ID": "1993-036NK", "EPOCH": "2025-12-16T21:50:52.954368", "MEAN_MOTION": 15.19816101, "ECCENTRICITY": 0.00114889, "INCLINATION": 73.9722, "RA_OF_ASC_NODE": 296.7227, "ARG_OF_PERICENTER": 74.3754, "MEAN_ANOMALY": 285.871, "EPHEMERIS_TYPE": 0, "CLASSIFICATION_TYPE": "U", "NORAD_CAT_ID": 34313, "ELEMENT_SET_NO": 999, "REV_AT_EPOCH": 89128, "BSTAR": 0.0034346843, "MEAN_MOTION_DOT": 0.0007446, "MEAN_MOTION_DDOT": 0}, "tle": {"line1": "1 34313U 93036NK  25350.91033512  .00074460  00000+0  34347-2 0  9997", "line2": "2 34313  73.9722 296.7227 0011488  74.3754 285.8710 15.19816101891285"}}, "geometry": {"type": "Point", "coordinates": [-57.74321600739988, 21.5287732167254]}}, {"type": "Feature", "properties": {"norad_id": 34314, "name": "COSMOS 2251 DEB", "group": "cosmos-2251-debris", "lat": 35.083705984104235, "lon": 108.48859660079162, "alt_km": 841.5552526460324, "timestamp": "2025-12-17T09:00:17.541839+00:00", "meta": {"OBJECT_NAME": "COSMOS 2251 DEB", "OBJECT_ID": "1993-036NL", "EPOCH": "2025-12-16T22:26:23.523072", "MEAN_MOTION": 14.17433615, "ECCENTRICITY": 0.01030387, "INCLINATION": 74.0055, "RA_OF_ASC_NODE": 300.8963, "ARG_OF_PERICENTER": 45.5786, "MEAN_ANOMALY": 11.0492, "EPHEMERIS_TYPE": 0, "CLASSIFICATION_TYPE": "U", "NORAD_CAT_ID": 34314, "ELEMENT_SET_NO": 999, "REV_AT_EPOCH": 86717, "BSTAR": 0.00053265051, "MEAN_MOTION_DOT": 1.112e-05, "MEAN_MOTION_DDOT": 0}, "tle": {"line1": "1 34314U 93036NL  25350.93499448  .00001112  00000+0  53265-3 0  9999", "line2": "2 34314  74.0055 300.8963 0103038  45.5786  11.0492 14.17433615867178"}}, "geometry": {"type": "Point", "coordinates": [108.48859660079162, 35.083705984104235]}}, {"type": "Feature", "properties": {"norad_id": 34316, "name": "COSMOS 2251 DEB", "group": "cosmos-2251-debris", "lat": 42.56348417946888, "lon": 132.39072187767152, "alt_km": 587.4408757165274, "timestamp": "2025-12-17T09:00:17.541849+00:00", "meta": {"OBJECT_NAME": "COSMOS 2251 DEB", "OBJECT_ID": "1993-036NN", "EPOCH": "2025-12-16T05:02:36.199680", "MEAN_MOTION": 14.91937461, "ECCENTRICITY": 0.00085862, "INCLINATION": 74.0646, "RA_OF_ASC_NODE": 329.9362, "ARG_OF_PERICENTER": 53.0783, "MEAN_ANOMALY": 307.1185, "EPHEMERIS_TYPE": 0, "CLASSIFICATION_TYPE": "U", "NORAD_CAT_ID": 34316, "ELEMENT_SET_NO": 999, "REV_AT_EPOCH": 89261, "BSTAR": 0.0011447433, "MEAN_MOTION_DOT": 0.00011578, "MEAN_MOTION_DDOT": 0}, "tle": {"line1": "1 34316U 93036NN  25350.21014120  .00011578  00000+0  11447-2 0  9994", "line2": "2 34316  74.0646 329.9362 0008586  53.0783 307.1185 14.91937461892619"}}, "geometry": {"type": "Point", "coordinates": [132.39072187767152, 42.56348417946888]}}, {"type": "Feature", "properties": {"norad_id": 34317, "name": "COSMOS 2251 DEB", "group": "cosmos-2251-debris", "lat": -69.22982198642651, "lon": -21.359917375459045, "alt_km": 1029.3257914187607, "timestamp": "2025-12-17T09:00:17.541860+00:00", "meta": {"OBJECT_NAME": "COSMOS 2251 DEB", "OBJECT_ID": "1993-036NP", "EPOCH": "2025-12-16T12:49:27.293952", "MEAN_MOTION": 13.65125604, "ECCENTRICITY": 0.03366437, "INCLINATION": 73.9246, "RA_OF_ASC_NODE": 29.5113, "ARG_OF_PERICENTER": 18.035, "MEAN_ANOMALY": 98.3474, "EPHEMERIS_TYPE": 0, "CLASSIFICATION_TYPE": "U", "NORAD_CAT_ID": 34317, "ELEMENT_SET_NO": 999, "REV_AT_EPOCH": 83671, "BSTAR": 0.00042074586, "MEAN_MOTION_DOT": 4.8e-06, "MEAN_MOTION_DDOT": 0}, "tle": {"line1": "1 34317U 93036NP  25350.53434368  .00000480  00000+0  42075-3 0  9992", "line2": "2 34317  73.9246  29.5113 0336643  18.0350  98.3474 13.65125604836717"}}, "geometry": {"type": "Point", "coordinates": [-21.359917375459045, -69.22982198642651]}}, {"type": "Feature", "properties": {"norad_id": 34321, "name": "COSMOS 2251 DEB", "group": "cosmos-2251-debris", "lat": -50.346272554162894, "lon": 127.43666157461969, "alt_km": 722.1613049948737, "timestamp": "2025-12-17T09:00:17.541870+00:00", "meta": {"OBJECT_NAME": "COSMOS 2251 DEB", "OBJECT_ID": "1993-036NT", "EPOCH": "2025-12-16T20:31:34.948704", "MEAN_MOTION": 14.50073971, "ECCENTRICITY": 0.00159103, "INCLINATION": 74.0274, "RA_OF_ASC_NODE": 148.629, "ARG_OF_PERICENTER": 277.9738, "MEAN_ANOMALY": 195.6884, "EPHEMERIS_TYPE": 0, "CLASSIFICATION_TYPE": "U", "NORAD_CAT_ID": 34321, "ELEMENT_SET_NO": 999, "REV_AT_EPOCH": 88546, "BSTAR": 0.00045974307, "MEAN_MOTION_DOT": 1.759e-05, "MEAN_MOTION_DDOT": 0}, "tle": {"line1": "1 34321U 93036NT  25350.85526561  .00001759  00000+0  45974-3 0  9990", "line2": "2 34321  74.0274 148.6290 0015910 277.9738 195.6884 14.50073971885467"}}, "geometry": {"type": "Point", "coordinates": [127.43666157461969, -50.346272554162894]}}, {"type": "Feature", "properties": {"norad_id": 34323, "name": "COSMOS 2251 DEB", "group": "cosmos-2251-debris", "lat": 8.962312028513209, "lon": 116.61799185694177, "alt_km": 682.5079358168723, "timestamp": "2025-12-17T09:00:17.541881+00:00", "meta": {"OBJECT_NAME": "COSMOS 2251 DEB", "OBJECT_ID": "1993-036NV", "EPOCH": "2025-12-16T18:50:20.461920", "MEAN_MOTION": 14.74562283, "ECCENTRICITY": 0.00585114, "INCLINATION": 73.9525, "RA_OF_ASC_NODE": 115.1743, "ARG_OF_PERICENTER": 158.2602, "MEAN_ANOMALY": 319.5598, "EPHEMERIS_TYPE": 0, "CLASSIFICATION_TYPE": "U", "NORAD_CAT_ID": 34323, "ELEMENT_SET_NO": 999, "REV_AT_EPOCH": 88499, "BSTAR": 0.0018966212, "MEAN_MOTION_DOT": 0.00012975, "MEAN_MOTION_DDOT": 0}, "tle": {"line1": "1 34323U 93036NV  25350.78495905  .00012975  00000+0  18966-2 0  9993", "line2": "2 34323  73.9525 115.1743 0058511 158.2602 319.5598 14.74562283884994"}}, "geometry": {"type": "Point", "coordinates": [116.61799185694177, 8.962312028513209]}}, {"type": "Feature", "properties": {"norad_id": 34325, "name": "COSMOS 2251 DEB", "group": "cosmos-2251-debris", "lat": 42.491556468980654, "lon": -10.732261484454359, "alt_km": 815.163342424833, "timestamp": "2025-12-17T09:00:17.541891+00:00", "meta": {"OBJECT_NAME": "COSMOS 2251 DEB", "OBJECT_ID": "1993-036NX", "EPOCH": "2025-12-16T22:40:57.618912", "MEAN_MOTION": 14.04498411, "ECCENTRICITY": 0.01919084, "INCLINATION": 73.8705, "RA_OF_ASC_NODE": 185.3973, "ARG_OF_PERICENTER": 201.9166, "MEAN_ANOMALY": 281.529, "EPHEMERIS_TYPE": 0, "CLASSIFICATION_TYPE": "U", "NORAD_CAT_ID": 34325, "ELEMENT_SET_NO": 999, "REV_AT_EPOCH": 85574, "BSTAR": 0.0014362748, "MEAN_MOTION_DOT": 2.676e-05, "MEAN_MOTION_DDOT": 0}, "tle": {"line1": "1 34325U 93036NX  25350.94511133  .00002676  00000+0  14363-2 0  9999", "line2": "2 34325  73.8705 185.3973 0191908 201.9166 281.5290 14.04498411855740"}}, "geometry": {"type": "Point", "coordinates": [-10.732261484454359, 42.491556468980654]}}]}